[{"OBJECT_NAME":"ONEWEB-0403","OBJECT_ID":"2021-132Q","EPOCH":"2026-05-21T06:11:36.658752","MEAN_MOTION":13.1868694,"ECCENTRICITY":0.0001942,"INCLINATION":87.9171,"RA_OF_ASC_NODE":340.814,"ARG_OF_PERICENTER":90.7686,"MEAN_ANOMALY":269.3669,"EPHEMERIS_TYPE":0,"CLASSIFICATION_TYPE":"U","NORAD_CAT_ID":50483,"ELEMENT_SET_NO":999,"REV_AT_EPOCH":21804,"BSTAR":2.2249e-05,"MEAN_MOTION_DOT":2.2e-07,"MEAN_MOTION_DDOT":0.0},{"OBJECT_NAME":"ONEWEB-0404","OBJECT_ID":"2021-132R","EPOCH":"2026-05-21T04:04:34.716000","MEAN_MOTION":13.11416749,"ECCENTRICITY":0.0002046,"INCLINATION":87.8918,"RA_OF_ASC_NODE":26.4406,"ARG_OF_PERICENTER":90.0857,"MEAN_ANOMALY":270.0506,"EPHEMERIS_TYPE":0,"CLASSIFICATION_TYPE":"U","NORAD_CAT_ID":50484,"ELEMENT_SET_NO":999,"REV_AT_EPOCH":21215,"BSTAR":-0.0013637,"MEAN_MOTION_DOT":-4.71e-06,"MEAN_MOTION_DDOT":0.0},{"OBJECT_NAME":"ONEWEB-0405","OBJECT_ID":"2021-132S","EPOCH":"2026-05-21T06:31:01.747200","MEAN_MOTION":13.18685245,"ECCENTRICITY":0.0001488,"INCLINATION":87.9174,"RA_OF_ASC_NODE":340.795,"ARG_OF_PERICENTER":97.6382,"MEAN_ANOMALY":262.4919,"EPHEMERIS_TYPE":0,"CLASSIFICATION_TYPE":"U","NORAD_CAT_ID":50485,"ELEMENT_SET_NO":999,"REV_AT_EPOCH":21844,"BSTAR":0.0001507,"MEAN_MOTION_DOT":7.2e-07,"MEAN_MOTION_DDOT":0.0},{"OBJECT_NAME":"ONEWEB-0406","OBJECT_ID":"2021-132T","EPOCH":"2026-05-21T02:40:22.868256","MEAN_MOTION":13.18687716,"ECCENTRICITY":0.0002272,"INCLINATION":87.9163,"RA_OF_ASC_NODE":340.8459,"ARG_OF_PERICENTER":98.638,"MEAN_ANOMALY":261.501,"EPHEMERIS_TYPE":0,"CLASSIFICATION_TYPE":"U","NORAD_CAT_ID":50486,"ELEMENT_SET_NO":999,"REV_AT_EPOCH":21805,"BSTAR":-8.864800000000001e-05,"MEAN_MOTION_DOT":-2.2e-07,"MEAN_MOTION_DDOT":0.0},{"OBJECT_NAME":"ONEWEB-0407","OBJECT_ID":"2021-132U","EPOCH":"2026-05-21T02:30:38.859552","MEAN_MOTION":13.18685361,"ECCENTRICITY":0.0001716,"INCLINATION":87.9173,"RA_OF_ASC_NODE":340.8375,"ARG_OF_PERICENTER":82.1567,"MEAN_ANOMALY":277.976,"EPHEMERIS_TYPE":0,"CLASSIFICATION_TYPE":"U","NORAD_CAT_ID":50487,"ELEMENT_SET_NO":999,"REV_AT_EPOCH":21799,"BSTAR":-0.00010878,"MEAN_MOTION_DOT":-3e-07,"MEAN_MOTION_DDOT":0.0},{"OBJECT_NAME":"ONEWEB-0409","OBJECT_ID":"2021-132V","EPOCH":"2026-05-21T04:02:07.995840","MEAN_MOTION":13.11417206,"ECCENTRICITY":0.0001889,"INCLINATION":87.8927,"RA_OF_ASC_NODE":26.4275,"ARG_OF_PERICENTER":90.9796,"MEAN_ANOMALY":269.1548,"EPHEMERIS_TYPE":0,"CLASSIFICATION_TYPE":"U","NORAD_CAT_ID":50488,"ELEMENT_SET_NO":999,"REV_AT_EPOCH":21204,"BSTAR":-0.0014152000000000001,"MEAN_MOTION_DOT":-4.89e-06,"MEAN_MOTION_DDOT":0.0},{"OBJECT_NAME":"ONEWEB-0412","OBJECT_ID":"2021-132W","EPOCH":"2026-05-21T05:52:11.473536","MEAN_MOTION":13.18687402,"ECCENTRICITY":0.0002017,"INCLINATION":87.9171,"RA_OF_ASC_NODE":340.8188,"ARG_OF_PERICENTER":79.8898,"MEAN_ANOMALY":280.2461,"EPHEMERIS_TYPE":0,"CLASSIFICATION_TYPE":"U","NORAD_CAT_ID":50489,"ELEMENT_SET_NO":999,"REV_AT_EPOCH":21810,"BSTAR":-2.1868e-05,"MEAN_MOTION_DOT":4e-08,"MEAN_MOTION_DDOT":0.0},{"OBJECT_NAME":"ONEWEB-0413","OBJECT_ID":"2021-132X","EPOCH":"2026-05-21T05:59:28.453632","MEAN_MOTION":13.18687047,"ECCENTRICITY":0.0001896,"INCLINATION":87.9162,"RA_OF_ASC_NODE":340.8185,"ARG_OF_PERICENTER":78.1186,"MEAN_ANOMALY":282.0158,"EPHEMERIS_TYPE":0,"CLASSIFICATION_TYPE":"U","NORAD_CAT_ID":50490,"ELEMENT_SET_NO":999,"REV_AT_EPOCH":21804,"BSTAR":0.00020364,"MEAN_MOTION_DOT":9.3e-07,"MEAN_MOTION_DDOT":0.0},{"OBJECT_NAME":"ONEWEB-0414","OBJECT_ID":"2021-132Y","EPOCH":"2026-05-21T01:59:04.987104","MEAN_MOTION":13.18687136,"ECCENTRICITY":0.0001996,"INCLINATION":87.9173,"RA_OF_ASC_NODE":340.8309,"ARG_OF_PERICENTER":85.8649,"MEAN_ANOMALY":274.2712,"EPHEMERIS_TYPE":0,"CLASSIFICATION_TYPE":"U","NORAD_CAT_ID":50491,"ELEMENT_SET_NO":999,"REV_AT_EPOCH":21805,"BSTAR":-4.321e-05,"MEAN_MOTION_DOT":-4e-08,"MEAN_MOTION_DDOT":0.0},{"OBJECT_NAME":"ONEWEB-0417","OBJECT_ID":"2021-132Z","EPOCH":"2026-05-21T02:11:14.229024","MEAN_MOTION":13.18688392,"ECCENTRICITY":0.0001971,"INCLINATION":87.9161,"RA_OF_ASC_NODE":340.8513,"ARG_OF_PERICENTER":93.6954,"MEAN_ANOMALY":266.4403,"EPHEMERIS_TYPE":0,"CLASSIFICATION_TYPE":"U","NORAD_CAT_ID":50492,"ELEMENT_SET_NO":999,"REV_AT_EPOCH":21803,"BSTAR":0.00012033000000000001,"MEAN_MOTION_DOT":6e-07,"MEAN_MOTION_DDOT":0.0},{"OBJECT_NAME":"ONEWEB-0418","OBJECT_ID":"2021-132AA","EPOCH":"2026-05-21T02:25:35.672448","MEAN_MOTION":13.18685258,"ECCENTRICITY":0.0002002,"INCLINATION":87.9172,"RA_OF_ASC_NODE":340.8463,"ARG_OF_PERICENTER":95.5798,"MEAN_ANOMALY":264.5563,"EPHEMERIS_TYPE":0,"CLASSIFICATION_TYPE":"U","NORAD_CAT_ID":50493,"ELEMENT_SET_NO":999,"REV_AT_EPOCH":21809,"BSTAR":-0.00011934,"MEAN_MOTION_DOT":-3.4e-07,"MEAN_MOTION_DDOT":0.0},{"OBJECT_NAME":"ONEWEB-0419","OBJECT_ID":"2021-132AB","EPOCH":"2026-05-21T02:51:45.623520","MEAN_MOTION":13.18664022,"ECCENTRICITY":0.0001813,"INCLINATION":87.9172,"RA_OF_ASC_NODE":340.842,"ARG_OF_PERICENTER":96.2894,"MEAN_ANOMALY":263.8444,"EPHEMERIS_TYPE":0,"CLASSIFICATION_TYPE":"U","NORAD_CAT_ID":50494,"ELEMENT_SET_NO":999,"REV_AT_EPOCH":21801,"BSTAR":5.2725e-05,"MEAN_MOTION_DOT":3.4e-07,"MEAN_MOTION_DDOT":0.0},{"OBJECT_NAME":"ONEWEB-0420","OBJECT_ID":"2021-132AC","EPOCH":"2026-05-21T02:01:30.314496","MEAN_MOTION":13.18687731,"ECCENTRICITY":0.0001705,"INCLINATION":87.916,"RA_OF_ASC_NODE":340.8547,"ARG_OF_PERICENTER":82.8696,"MEAN_ANOMALY":277.263,"EPHEMERIS_TYPE":0,"CLASSIFICATION_TYPE":"U","NORAD_CAT_ID":50495,"ELEMENT_SET_NO":999,"REV_AT_EPOCH":21800,"BSTAR":2.9452000000000002e-05,"MEAN_MOTION_DOT":2.5e-07,"MEAN_MOTION_DDOT":0.0},{"OBJECT_NAME":"ONEWEB-0421","OBJECT_ID":"2021-132AD","EPOCH":"2026-05-21T01:51:48.284352","MEAN_MOTION":13.18684889,"ECCENTRICITY":0.0002198,"INCLINATION":87.9168,"RA_OF_ASC_NODE":340.8523,"ARG_OF_PERICENTER":83.7208,"MEAN_ANOMALY":276.4175,"EPHEMERIS_TYPE":0,"CLASSIFICATION_TYPE":"U","NORAD_CAT_ID":50496,"ELEMENT_SET_NO":999,"REV_AT_EPOCH":21804,"BSTAR":-3.2189e-05,"MEAN_MOTION_DOT":0.0,"MEAN_MOTION_DDOT":0.0},{"OBJECT_NAME":"ONEWEB-0424","OBJECT_ID":"2021-132AE","EPOCH":"2026-05-21T06:23:45.864384","MEAN_MOTION":13.18687362,"ECCENTRICITY":0.0001641,"INCLINATION":87.9172,"RA_OF_ASC_NODE":340.812,"ARG_OF_PERICENTER":97.9433,"MEAN_ANOMALY":262.1885,"EPHEMERIS_TYPE":0,"CLASSIFICATION_TYPE":"U","NORAD_CAT_ID":50497,"ELEMENT_SET_NO":999,"REV_AT_EPOCH":21809,"BSTAR":-1.3979e-06,"MEAN_MOTION_DOT":1.2e-07,"MEAN_MOTION_DDOT":0.0},{"OBJECT_NAME":"ONEWEB-0426","OBJECT_ID":"2021-132AF","EPOCH":"2026-05-21T01:45:46.221696","MEAN_MOTION":13.18686745,"ECCENTRICITY":0.0002554,"INCLINATION":87.9171,"RA_OF_ASC_NODE":340.8415,"ARG_OF_PERICENTER":92.5767,"MEAN_ANOMALY":267.5657,"EPHEMERIS_TYPE":0,"CLASSIFICATION_TYPE":"U","NORAD_CAT_ID":50498,"ELEMENT_SET_NO":999,"REV_AT_EPOCH":21801,"BSTAR":-7.221300000000001e-05,"MEAN_MOTION_DOT":-1.6e-07,"MEAN_MOTION_DDOT":0.0}]