ONEWEB-0403             
1 50483U 21132Q   26141.25806318  .00000022  00000+0  22249-4 0  9992
2 50483  87.9171 340.8140 0001942  90.7686 269.3669 13.18686940218049
ONEWEB-0404             
1 50484U 21132R   26141.16984625 -.00000471  00000+0 -13637-2 0  9990
2 50484  87.8918  26.4406 0002046  90.0857 270.0506 13.11416749212155
ONEWEB-0405             
1 50485U 21132S   26141.27154800  .00000072  00000+0  15070-3 0  9996
2 50485  87.9174 340.7950 0001488  97.6382 262.4919 13.18685245218449
ONEWEB-0406             
1 50486U 21132T   26141.11137579 -.00000022  00000+0 -88648-4 0  9993
2 50486  87.9163 340.8459 0002272  98.6380 261.5010 13.18687716218058
ONEWEB-0407             
1 50487U 21132U   26141.10461643 -.00000030  00000+0 -10878-3 0  9993
2 50487  87.9173 340.8375 0001716  82.1567 277.9760 13.18685361217993
ONEWEB-0409             
1 50488U 21132V   26141.16814810 -.00000489  00000+0 -14152-2 0  9994
2 50488  87.8927  26.4275 0001889  90.9796 269.1548 13.11417206212040
ONEWEB-0412             
1 50489U 21132W   26141.24457724  .00000004  00000+0 -21868-4 0  9997
2 50489  87.9171 340.8188 0002017  79.8898 280.2461 13.18687402218107
ONEWEB-0413             
1 50490U 21132X   26141.24963488  .00000093  00000+0  20364-3 0  9994
2 50490  87.9162 340.8185 0001896  78.1186 282.0158 13.18687047218043
ONEWEB-0414             
1 50491U 21132Y   26141.08269661 -.00000004  00000+0 -43210-4 0  9999
2 50491  87.9173 340.8309 0001996  85.8649 274.2712 13.18687136218053
ONEWEB-0417             
1 50492U 21132Z   26141.09113691  .00000060  00000+0  12033-3 0  9990
2 50492  87.9161 340.8513 0001971  93.6954 266.4403 13.18688392218030
ONEWEB-0418             
1 50493U 21132AA  26141.10110732 -.00000034  00000+0 -11934-3 0  9998
2 50493  87.9172 340.8463 0002002  95.5798 264.5563 13.18685258218090
ONEWEB-0419             
1 50494U 21132AB  26141.11927805  .00000034  00000+0  52725-4 0  9999
2 50494  87.9172 340.8420 0001813  96.2894 263.8444 13.18664022218016
ONEWEB-0420             
1 50495U 21132AC  26141.08437864  .00000025  00000+0  29452-4 0  9998
2 50495  87.9160 340.8547 0001705  82.8696 277.2630 13.18687731218002
ONEWEB-0421             
1 50496U 21132AD  26141.07764218  .00000000  00000+0 -32189-4 0  9999
2 50496  87.9168 340.8523 0002198  83.7208 276.4175 13.18684889218041
ONEWEB-0424             
1 50497U 21132AE  26141.26650306  .00000012  00000+0 -13979-5 0  9993
2 50497  87.9172 340.8120 0001641  97.9433 262.1885 13.18687362218093
ONEWEB-0426             
1 50498U 21132AF  26141.07345164 -.00000016  00000+0 -72213-4 0  9996
2 50498  87.9171 340.8415 0002554  92.5767 267.5657 13.18686745218017
